[{"OBJECT_NAME":"STARLINK-32651","OBJECT_ID":"2024-239P","EPOCH":"2026-01-28T06:01:03.468576","MEAN_MOTION":15.30201916,"ECCENTRICITY":8.284e-5,"INCLINATION":53.1615,"RA_OF_ASC_NODE":21.6738,"ARG_OF_PERICENTER":83.5664,"MEAN_ANOMALY":276.5431,"EPHEMERIS_TYPE":0,"CLASSIFICATION_TYPE":"U","NORAD_CAT_ID":62314,"ELEMENT_SET_NO":999,"REV_AT_EPOCH":6319,"BSTAR":0.0012075742,"MEAN_MOTION_DOT":0.00035579,"MEAN_MOTION_DDOT":0},{"OBJECT_NAME":"STARLINK-32627","OBJECT_ID":"2024-239Q","EPOCH":"2026-01-29T00:02:44.217024","MEAN_MOTION":15.30226557,"ECCENTRICITY":0.00011892,"INCLINATION":53.1595,"RA_OF_ASC_NODE":18.4952,"ARG_OF_PERICENTER":99.0392,"MEAN_ANOMALY":261.0743,"EPHEMERIS_TYPE":0,"CLASSIFICATION_TYPE":"U","NORAD_CAT_ID":62315,"ELEMENT_SET_NO":999,"REV_AT_EPOCH":6330,"BSTAR":0.0011390181,"MEAN_MOTION_DOT":0.00033555,"MEAN_MOTION_DDOT":0},{"OBJECT_NAME":"STARLINK-32596","OBJECT_ID":"2024-239R","EPOCH":"2026-01-28T23:52:06.530592","MEAN_MOTION":15.30246951,"ECCENTRICITY":0.00013845,"INCLINATION":53.1593,"RA_OF_ASC_NODE":18.4962,"ARG_OF_PERICENTER":96.8155,"MEAN_ANOMALY":263.3004,"EPHEMERIS_TYPE":0,"CLASSIFICATION_TYPE":"U","NORAD_CAT_ID":62316,"ELEMENT_SET_NO":999,"REV_AT_EPOCH":6330,"BSTAR":0.0019896487,"MEAN_MOTION_DOT":0.00059125,"MEAN_MOTION_DDOT":0},{"OBJECT_NAME":"STARLINK-32519","OBJECT_ID":"2024-239S","EPOCH":"2026-01-28T05:29:52.044576","MEAN_MOTION":15.30194545,"ECCENTRICITY":0.00011449,"INCLINATION":53.16,"RA_OF_ASC_NODE":8.7551,"ARG_OF_PERICENTER":77.3691,"MEAN_ANOMALY":282.7438,"EPHEMERIS_TYPE":0,"CLASSIFICATION_TYPE":"U","NORAD_CAT_ID":62317,"ELEMENT_SET_NO":999,"REV_AT_EPOCH":6337,"BSTAR":0.0019730249,"MEAN_MOTION_DOT":0.00058527,"MEAN_MOTION_DDOT":0},{"OBJECT_NAME":"STARLINK-32527","OBJECT_ID":"2024-239U","EPOCH":"2026-01-28T22:41:24.580032","MEAN_MOTION":15.3023923,"ECCENTRICITY":0.0001523,"INCLINATION":53.1609,"RA_OF_ASC_NODE":5.4062,"ARG_OF_PERICENTER":87.6743,"MEAN_ANOMALY":272.4432,"EPHEMERIS_TYPE":0,"CLASSIFICATION_TYPE":"U","NORAD_CAT_ID":62319,"ELEMENT_SET_NO":999,"REV_AT_EPOCH":6348,"BSTAR":0.0019137513,"MEAN_MOTION_DOT":0.00056824,"MEAN_MOTION_DDOT":0},{"OBJECT_NAME":"STARLINK-32481","OBJECT_ID":"2024-239V","EPOCH":"2026-01-28T22:50:31.656192","MEAN_MOTION":15.30223645,"ECCENTRICITY":0.00013234,"INCLINATION":53.1595,"RA_OF_ASC_NODE":5.4449,"ARG_OF_PERICENTER":115.9325,"MEAN_ANOMALY":244.1812,"EPHEMERIS_TYPE":0,"CLASSIFICATION_TYPE":"U","NORAD_CAT_ID":62320,"ELEMENT_SET_NO":999,"REV_AT_EPOCH":6348,"BSTAR":0.0011782247,"MEAN_MOTION_DOT":0.00034725,"MEAN_MOTION_DDOT":0},{"OBJECT_NAME":"STARLINK-32645","OBJECT_ID":"2024-239W","EPOCH":"2026-01-28T22:56:36.336768","MEAN_MOTION":15.30230871,"ECCENTRICITY":0.00013974,"INCLINATION":53.1598,"RA_OF_ASC_NODE":5.4743,"ARG_OF_PERICENTER":103.06,"MEAN_ANOMALY":257.0557,"EPHEMERIS_TYPE":0,"CLASSIFICATION_TYPE":"U","NORAD_CAT_ID":62321,"ELEMENT_SET_NO":999,"REV_AT_EPOCH":6348,"BSTAR":0.0015836281,"MEAN_MOTION_DOT":0.00046885,"MEAN_MOTION_DDOT":0},{"OBJECT_NAME":"STARLINK-32654","OBJECT_ID":"2024-239X","EPOCH":"2026-01-28T23:09:33.806304","MEAN_MOTION":15.30231386,"ECCENTRICITY":0.00023436,"INCLINATION":53.1614,"RA_OF_ASC_NODE":18.3072,"ARG_OF_PERICENTER":93.8848,"MEAN_ANOMALY":266.2421,"EPHEMERIS_TYPE":0,"CLASSIFICATION_TYPE":"U","NORAD_CAT_ID":62322,"ELEMENT_SET_NO":999,"REV_AT_EPOCH":6330,"BSTAR":0.0017289792,"MEAN_MOTION_DOT":0.00051254,"MEAN_MOTION_DDOT":0},{"OBJECT_NAME":"STARLINK-11444 [DTC]","OBJECT_ID":"2024-249A","EPOCH":"2026-01-27T09:39:00.576000","MEAN_MOTION":15.70958047,"ECCENTRICITY":9.86e-6,"INCLINATION":42.9995,"RA_OF_ASC_NODE":56.838,"ARG_OF_PERICENTER":206.9393,"MEAN_ANOMALY":153.147,"EPHEMERIS_TYPE":0,"CLASSIFICATION_TYPE":"U","NORAD_CAT_ID":62409,"ELEMENT_SET_NO":999,"REV_AT_EPOCH":6298,"BSTAR":0.0025796907,"MEAN_MOTION_DOT":0.00346488,"MEAN_MOTION_DDOT":0},{"OBJECT_NAME":"STARLINK-11493 [DTC]","OBJECT_ID":"2024-249B","EPOCH":"2026-01-28T17:49:26.760576","MEAN_MOTION":15.71313355,"ECCENTRICITY":0.00038544,"INCLINATION":43,"RA_OF_ASC_NODE":48.8344,"ARG_OF_PERICENTER":38.2779,"MEAN_ANOMALY":321.8361,"EPHEMERIS_TYPE":0,"CLASSIFICATION_TYPE":"U","NORAD_CAT_ID":62410,"ELEMENT_SET_NO":999,"REV_AT_EPOCH":6319,"BSTAR":0.002289926,"MEAN_MOTION_DOT":0.00310799,"MEAN_MOTION_DDOT":0},{"OBJECT_NAME":"STARLINK-11453 [DTC]","OBJECT_ID":"2024-249C","EPOCH":"2026-01-27T09:00:46.645632","MEAN_MOTION":15.70930596,"ECCENTRICITY":9.217e-5,"INCLINATION":43.0004,"RA_OF_ASC_NODE":56.626,"ARG_OF_PERICENTER":254.58,"MEAN_ANOMALY":105.4966,"EPHEMERIS_TYPE":0,"CLASSIFICATION_TYPE":"U","NORAD_CAT_ID":62411,"ELEMENT_SET_NO":999,"REV_AT_EPOCH":6298,"BSTAR":0.0023869936,"MEAN_MOTION_DOT":0.0031911,"MEAN_MOTION_DDOT":0},{"OBJECT_NAME":"STARLINK-11462 [DTC]","OBJECT_ID":"2024-249D","EPOCH":"2026-01-28T22:00:01.999584","MEAN_MOTION":15.70824451,"ECCENTRICITY":0.00015913,"INCLINATION":42.9996,"RA_OF_ASC_NODE":47.4084,"ARG_OF_PERICENTER":275.1925,"MEAN_ANOMALY":140.6063,"EPHEMERIS_TYPE":0,"CLASSIFICATION_TYPE":"U","NORAD_CAT_ID":62412,"ELEMENT_SET_NO":999,"REV_AT_EPOCH":614,"BSTAR":0.00012687173,"MEAN_MOTION_DOT":0.00015851,"MEAN_MOTION_DDOT":0},{"OBJECT_NAME":"STARLINK-11441 [DTC]","OBJECT_ID":"2024-249E","EPOCH":"2026-01-28T02:56:33.888480","MEAN_MOTION":15.70855239,"ECCENTRICITY":0.00010938,"INCLINATION":43,"RA_OF_ASC_NODE":51.898,"ARG_OF_PERICENTER":258.0818,"MEAN_ANOMALY":101.9927,"EPHEMERIS_TYPE":0,"CLASSIFICATION_TYPE":"U","NORAD_CAT_ID":62413,"ELEMENT_SET_NO":999,"REV_AT_EPOCH":6310,"BSTAR":0.0020238428,"MEAN_MOTION_DOT":0.00267959,"MEAN_MOTION_DDOT":0},{"OBJECT_NAME":"STARLINK-11445 [DTC]","OBJECT_ID":"2024-249F","EPOCH":"2026-01-28T18:27:27.667008","MEAN_MOTION":15.70913557,"ECCENTRICITY":7.386e-5,"INCLINATION":42.9995,"RA_OF_ASC_NODE":48.1517,"ARG_OF_PERICENTER":1.3748,"MEAN_ANOMALY":358.7121,"EPHEMERIS_TYPE":0,"CLASSIFICATION_TYPE":"U","NORAD_CAT_ID":62414,"ELEMENT_SET_NO":999,"REV_AT_EPOCH":6320,"BSTAR":0.0022529977,"MEAN_MOTION_DOT":0.00300267,"MEAN_MOTION_DDOT":0},{"OBJECT_NAME":"STARLINK-11355 [DTC]","OBJECT_ID":"2024-249G","EPOCH":"2026-01-28T00:00:02.999808","MEAN_MOTION":15.70844924,"ECCENTRICITY":0.00014681,"INCLINATION":43.0004,"RA_OF_ASC_NODE":52.6405,"ARG_OF_PERICENTER":269.1273,"MEAN_ANOMALY":111.7624,"EPHEMERIS_TYPE":0,"CLASSIFICATION_TYPE":"U","NORAD_CAT_ID":62415,"ELEMENT_SET_NO":999,"REV_AT_EPOCH":579,"BSTAR":4.6032548e-5,"MEAN_MOTION_DOT":5.463e-5,"MEAN_MOTION_DDOT":0},{"OBJECT_NAME":"STARLINK-11446 [DTC]","OBJECT_ID":"2024-249H","EPOCH":"2026-01-28T22:31:33.302496","MEAN_MOTION":15.71128972,"ECCENTRICITY":0.00044373,"INCLINATION":42.999,"RA_OF_ASC_NODE":46.8265,"ARG_OF_PERICENTER":308.4783,"MEAN_ANOMALY":51.5686,"EPHEMERIS_TYPE":0,"CLASSIFICATION_TYPE":"U","NORAD_CAT_ID":62416,"ELEMENT_SET_NO":999,"REV_AT_EPOCH":6323,"BSTAR":0.0026325952,"MEAN_MOTION_DOT":0.00356613,"MEAN_MOTION_DDOT":0},{"OBJECT_NAME":"STARLINK-11428 [DTC]","OBJECT_ID":"2024-249J","EPOCH":"2026-01-28T22:01:09.031296","MEAN_MOTION":15.71077683,"ECCENTRICITY":0.00021976,"INCLINATION":42.9991,"RA_OF_ASC_NODE":47.5589,"ARG_OF_PERICENTER":224.3702,"MEAN_ANOMALY":135.699,"EPHEMERIS_TYPE":0,"CLASSIFICATION_TYPE":"U","NORAD_CAT_ID":62417,"ELEMENT_SET_NO":999,"REV_AT_EPOCH":6322,"BSTAR":0.0021168228,"MEAN_MOTION_DOT":0.00283456,"MEAN_MOTION_DDOT":0},{"OBJECT_NAME":"STARLINK-11447 [DTC]","OBJECT_ID":"2024-249K","EPOCH":"2026-01-28T18:04:31.421280","MEAN_MOTION":15.70998337,"ECCENTRICITY":0.00018166,"INCLINATION":43.0012,"RA_OF_ASC_NODE":48.0203,"ARG_OF_PERICENTER":353.3115,"MEAN_ANOMALY":6.7729,"EPHEMERIS_TYPE":0,"CLASSIFICATION_TYPE":"U","NORAD_CAT_ID":62418,"ELEMENT_SET_NO":999,"REV_AT_EPOCH":6320,"BSTAR":0.0021018851,"MEAN_MOTION_DOT":0.00280409,"MEAN_MOTION_DDOT":0},{"OBJECT_NAME":"STARLINK-11439 [DTC]","OBJECT_ID":"2024-249L","EPOCH":"2026-01-28T22:00:01.999584","MEAN_MOTION":15.74334025,"ECCENTRICITY":0.00014269,"INCLINATION":43.0001,"RA_OF_ASC_NODE":47.1569,"ARG_OF_PERICENTER":245.5557,"MEAN_ANOMALY":270.9759,"EPHEMERIS_TYPE":0,"CLASSIFICATION_TYPE":"U","NORAD_CAT_ID":62419,"ELEMENT_SET_NO":999,"REV_AT_EPOCH":614,"BSTAR":0.0065568673,"MEAN_MOTION_DOT":0.01091858,"MEAN_MOTION_DDOT":0},{"OBJECT_NAME":"STARLINK-11434 [DTC]","OBJECT_ID":"2024-249M","EPOCH":"2026-01-28T11:27:54.645984","MEAN_MOTION":15.7116966,"ECCENTRICITY":0.0004587,"INCLINATION":43.0001,"RA_OF_ASC_NODE":50.2763,"ARG_OF_PERICENTER":44.5481,"MEAN_ANOMALY":315.5755,"EPHEMERIS_TYPE":0,"CLASSIFICATION_TYPE":"U","NORAD_CAT_ID":62420,"ELEMENT_SET_NO":999,"REV_AT_EPOCH":6315,"BSTAR":0.0020883911,"MEAN_MOTION_DOT":0.00280705,"MEAN_MOTION_DDOT":0},{"OBJECT_NAME":"STARLINK-11461 [DTC]","OBJECT_ID":"2024-249N","EPOCH":"2026-01-28T08:09:28.095264","MEAN_MOTION":15.71073464,"ECCENTRICITY":0.00013523,"INCLINATION":42.9995,"RA_OF_ASC_NODE":50.9578,"ARG_OF_PERICENTER":208.818,"MEAN_ANOMALY":151.2613,"EPHEMERIS_TYPE":0,"CLASSIFICATION_TYPE":"U","NORAD_CAT_ID":62421,"ELEMENT_SET_NO":999,"REV_AT_EPOCH":6313,"BSTAR":0.0020909582,"MEAN_MOTION_DOT":0.00279812,"MEAN_MOTION_DDOT":0},{"OBJECT_NAME":"STARLINK-32692","OBJECT_ID":"2024-249P","EPOCH":"2026-01-28T19:38:34.916352","MEAN_MOTION":15.27605201,"ECCENTRICITY":9.096e-5,"INCLINATION":43.0014,"RA_OF_ASC_NODE":187.2102,"ARG_OF_PERICENTER":268.0992,"MEAN_ANOMALY":91.9755,"EPHEMERIS_TYPE":0,"CLASSIFICATION_TYPE":"U","NORAD_CAT_ID":62422,"ELEMENT_SET_NO":999,"REV_AT_EPOCH":6162,"BSTAR":0.00086910717,"MEAN_MOTION_DOT":0.00023749,"MEAN_MOTION_DDOT":0},{"OBJECT_NAME":"STARLINK-32680","OBJECT_ID":"2024-249Q","EPOCH":"2026-01-28T18:01:54.927552","MEAN_MOTION":15.27598574,"ECCENTRICITY":0.00016715,"INCLINATION":42.9998,"RA_OF_ASC_NODE":179.7911,"ARG_OF_PERICENTER":272.1893,"MEAN_ANOMALY":87.8767,"EPHEMERIS_TYPE":0,"CLASSIFICATION_TYPE":"U","NORAD_CAT_ID":62423,"ELEMENT_SET_NO":999,"REV_AT_EPOCH":6170,"BSTAR":0.0012697888,"MEAN_MOTION_DOT":0.00034865,"MEAN_MOTION_DDOT":0}]
